[{"OBJECT_NAME":"POPACS 3","OBJECT_ID":"2013-055F","EPOCH":"2026-03-08T18:51:12.850560","MEAN_MOTION":14.53938339,"ECCENTRICITY":0.05603673,"INCLINATION":81.0053,"RA_OF_ASC_NODE":337.8959,"ARG_OF_PERICENTER":15.4614,"MEAN_ANOMALY":346.2932,"EPHEMERIS_TYPE":0,"CLASSIFICATION_TYPE":"U","NORAD_CAT_ID":39270,"ELEMENT_SET_NO":999,"REV_AT_EPOCH":62395,"BSTAR":0.00046789991,"MEAN_MOTION_DOT":0.00019405,"MEAN_MOTION_DDOT":0},{"OBJECT_NAME":"STARLINK-34677","OBJECT_ID":"2025-161S","EPOCH":"2026-03-09T22:25:16.499136","MEAN_MOTION":15.30219127,"ECCENTRICITY":0.00026115,"INCLINATION":53.1603,"RA_OF_ASC_NODE":293.3259,"ARG_OF_PERICENTER":44.929,"MEAN_ANOMALY":315.1922,"EPHEMERIS_TYPE":0,"CLASSIFICATION_TYPE":"U","NORAD_CAT_ID":65031,"ELEMENT_SET_NO":999,"REV_AT_EPOCH":3426,"BSTAR":0.0014794379,"MEAN_MOTION_DOT":0.00043744,"MEAN_MOTION_DDOT":0}]
